[{"OBJECT_NAME":"STARLINK-1090","OBJECT_ID":"2020-001BG","EPOCH":"2026-03-10T00:00:02.999808","MEAN_MOTION":15.20362352,"ECCENTRICITY":0.00018062,"INCLINATION":53.1145,"RA_OF_ASC_NODE":304.836,"ARG_OF_PERICENTER":72.8896,"MEAN_ANOMALY":4.5449,"EPHEMERIS_TYPE":0,"CLASSIFICATION_TYPE":"U","NORAD_CAT_ID":44968,"ELEMENT_SET_NO":999,"REV_AT_EPOCH":574,"BSTAR":0.056176285,"MEAN_MOTION_DOT":0.01344146,"MEAN_MOTION_DDOT":0},{"OBJECT_NAME":"CSTP 1.2 (STC 1.2)","OBJECT_ID":"2023-091W","EPOCH":"2026-03-09T23:12:27.821952","MEAN_MOTION":15.2718076,"ECCENTRICITY":0.00204388,"INCLINATION":97.5258,"RA_OF_ASC_NODE":134.3262,"ARG_OF_PERICENTER":84.9592,"MEAN_ANOMALY":275.3979,"EPHEMERIS_TYPE":0,"CLASSIFICATION_TYPE":"U","NORAD_CAT_ID":57186,"ELEMENT_SET_NO":999,"REV_AT_EPOCH":14930,"BSTAR":0.00043035718,"MEAN_MOTION_DOT":0.00011466,"MEAN_MOTION_DDOT":0}]
